STARLINK-30187
1 57473U 23107S   26090.83335647  .00574704  14763-3  12210-2 0  9994
2 57473  42.9876 167.3894 0015513  43.4385  74.3572 15.97654863  6002
